NORAD_CAT_ID,OBJECT_NAME,OBJECT_TYPE,EPOCH,MEAN_MOTION,ECCENTRICITY,INCLINATION,RA_OF_ASC_NODE,ARG_OF_PERICENTER,MEAN_ANOMALY,BSTAR,MEAN_MOTION_DOT,MEAN_MOTION_DDOT,TLE_LINE0,TLE_LINE1,TLE_LINE2,SEMIMAJOR_AXIS,PERIOD,APOGEE,PERIGEE,DECAYED
51744.0,STARLINK-3452,PAYLOAD,2024-06-04 18:18:24,15.08838036,0.0001477,53.2214,325.3613,102.5526,257.5631,0.00028826,4.302e-05,0.0,0 STARLINK-3452,1 51744U 22016AG  24156.76278571  .00004302  00000-0  28826-3 0  9991,2 51744  53.2214 325.3613 0001477 102.5526 257.5631 15.08838036127565,6917.886,95.438,540.773,538.73,0.0
51744.0,STARLINK-3452,PAYLOAD,2024-06-04 21:29:10,15.08837911,8.81e-05,53.2209,324.7655,97.3033,262.8059,0.00028182,4.2e-05,0.0,0 STARLINK-3452,1 51744U 22016AG  24156.89526610  .00004200  00000-0  28182-3 0  9997,2 51744  53.2209 324.7655 0000881  97.3033 262.8059 15.08837911126529,6917.887,95.438,540.361,539.142,0.0
51744.0,STARLINK-3452,PAYLOAD,2024-06-05 11:47:41,15.08812014,5.9e-05,53.2219,322.0889,73.4998,286.6059,3.6692e-05,2.96e-06,0.0,0 STARLINK-3452,1 51744U 22016AG  24157.49145333  .00000296  00000-0  36692-4 0  9990,2 51744  53.2219 322.0889 0000590  73.4998 286.6059 15.08812014127670,6917.966,95.439,540.239,539.423,0.0
51744.0,STARLINK-3452,PAYLOAD,2024-06-05 18:09:13,15.08825515,7.26e-05,53.2236,320.8988,346.5925,13.5048,0.00014475,2.016e-05,0.0,0 STARLINK-3452,1 51744U 22016AG  24157.75640579  .00002016  00000-0  14475-3 0  9997,2 51744  53.2236 320.8988 0000726 346.5925  13.5048 15.08825515127710,6917.925,95.438,540.292,539.287,0.0
51744.0,STARLINK-3452,PAYLOAD,2024-06-05 21:19:59,15.08830826,6.75e-05,53.2229,320.3044,58.1024,302.0034,0.00018445,2.648e-05,0.0,0 STARLINK-3452,1 51744U 22016AG  24157.88888299  .00002648  00000-0  18445-3 0  9996,2 51744  53.2229 320.3044 0000675  58.1024 302.0034 15.08830826126675,6917.908,95.438,540.24,539.306,0.0
51744.0,STARLINK-3452,PAYLOAD,2024-06-06 03:41:31,15.0883593,8.39e-05,53.2189,319.1163,78.5437,281.565,0.00013581,1.874e-05,0.0,0 STARLINK-3452,1 51744U 22016AG  24158.15384121  .00001874  00000-0  13581-3 0  9998,2 51744  53.2189 319.1163 0000839  78.5437 281.5650 15.08835930127772,6917.893,95.438,540.338,539.177,0.0
51744.0,STARLINK-3452,PAYLOAD,2024-06-06 19:35:23,15.08837053,0.000114,53.2199,316.1433,81.1626,278.9496,-7.491e-05,-1.48e-05,0.0,0 STARLINK-3452,1 51744U 22016AG  24158.81624333 -.00001480  00000-0 -74910-4 0  9992,2 51744  53.2199 316.1433 0001140  81.1626 278.9496 15.08837053126816,6917.889,95.438,540.543,538.966,0.0
51744.0,STARLINK-3452,PAYLOAD,2024-06-08 03:23:05,15.0885924,6.74e-05,53.2232,310.1967,72.3551,287.7515,-0.00025624,-4.365e-05,0.0,0 STARLINK-3452,1 51744U 22016AG  24160.14103176 -.00004365  00000-0 -25624-3 0  9990,2 51744  53.2232 310.1967 0000674  72.3551 287.7515 15.08859240128072,6917.822,95.436,540.153,539.22,0.0
51744.0,STARLINK-3452,PAYLOAD,2024-06-08 19:16:57,15.08848129,0.0001089,53.2152,307.2211,87.709,272.4026,3.6206e-05,2.89e-06,0.0,0 STARLINK-3452,1 51744U 22016AG  24160.80344035  .00000289  00000-0  36206-4 0  9992,2 51744  53.2152 307.2211 0001089  87.7090 272.4026 15.08848129128174,6917.856,95.437,540.474,538.967,0.0
51744.0,STARLINK-3452,PAYLOAD,2024-06-09 03:13:52,15.08863045,9.89e-05,53.2173,305.7355,84.911,275.1995,6.8094e-05,7.97e-06,0.0,0 STARLINK-3452,1 51744U 22016AG  24161.13462991  .00000797  00000-0  68094-4 0  9995,2 51744  53.2173 305.7355 0000989  84.9110 275.1995 15.08863045128224,6917.81,95.436,540.359,538.991,0.0
51744.0,STARLINK-3452,PAYLOAD,2024-06-09 19:07:45,15.08831924,0.0001221,53.216,302.76,105.3071,254.8057,-1.0704e-05,-4.58e-06,0.0,0 STARLINK-3452,1 51744U 22016AG  24161.79704926 -.00000458  00000-0 -10704-4 0  9995,2 51744  53.2160 302.7600 0001221 105.3071 254.8057 15.08831924128329,6917.905,95.438,540.615,538.925,0.0
51744.0,STARLINK-3452,PAYLOAD,2024-06-10 03:04:40,15.08844398,9.71e-05,53.2182,301.2731,113.6478,246.4617,0.00016609,2.357e-05,0.0,0 STARLINK-3452,1 51744U 22016AG  24162.12824286  .00002357  00000-0  16609-3 0  9992,2 51744  53.2182 301.2731 0000971 113.6478 246.4617 15.08844398128379,6917.867,95.437,540.404,539.06,0.0
51744.0,STARLINK-3452,PAYLOAD,2024-06-10 14:12:22,15.08840082,0.0001037,53.2181,299.1911,129.5729,230.5355,0.00020229,2.933e-05,0.0,0 STARLINK-3452,1 51744U 22016AG  24162.59192622  .00002933  00000-0  20229-3 0  9998,2 51744  53.2181 299.1911 0001037 129.5729 230.5355 15.08840082127381,6917.88,95.438,540.463,539.028,0.0
51744.0,STARLINK-3452,PAYLOAD,2024-06-10 15:47:45,15.08844208,0.0001012,53.2174,298.8954,93.2999,266.8109,0.00017372,2.478e-05,0.0,0 STARLINK-3452,1 51744U 22016AG  24162.65816455  .00002478  00000-0  17372-3 0  9991,2 51744  53.2174 298.8954 0001012  93.2999 266.8109 15.08844208127399,6917.868,95.437,540.433,539.032,0.0
51744.0,STARLINK-3452,PAYLOAD,2024-06-11 14:03:09,15.08843121,0.0001061,53.2178,294.7324,101.749,258.3621,0.0002858,4.264e-05,0.0,0 STARLINK-3452,1 51744U 22016AG  24163.58552571  .00004264  00000-0  28580-3 0  9998,2 51744  53.2178 294.7324 0001061 101.7490 258.3621 15.08843121127538,6917.871,95.437,540.47,539.002,0.0
51744.0,STARLINK-3452,PAYLOAD,2024-06-12 01:10:50,15.08860464,8.91e-05,53.2179,292.6515,94.6401,265.4693,0.00040303,6.136e-05,0.0,0 STARLINK-3452,1 51744U 22016AG  24164.04919557  .00006136  00000-0  40303-3 0  9998,2 51744  53.2179 292.6515 0000891  94.6401 265.4693 15.08860464128662,6917.818,95.436,540.299,539.066,0.0
51744.0,STARLINK-3452,PAYLOAD,2024-06-12 12:18:33,15.08824505,0.0001052,53.2184,290.5709,100.6092,259.5018,-0.00025739,-4.38e-05,0.0,0 STARLINK-3452,1 51744U 22016AG  24164.51289052 -.00004380  00000-0 -25739-3 0  9997,2 51744  53.2184 290.5709 0001052 100.6092 259.5018 15.08824505128733,6917.928,95.439,540.521,539.065,0.0
51744.0,STARLINK-3452,PAYLOAD,2024-06-12 15:29:20,15.08826783,0.0001042,53.2182,289.976,96.3327,263.7784,-0.0002333,-3.997e-05,0.0,0 STARLINK-3452,1 51744U 22016AG  24164.64537049 -.00003997  00000-0 -23330-3 0  9991,2 51744  53.2182 289.9760 0001042  96.3327 263.7784 15.08826783127692,6917.921,95.438,540.507,539.065,0.0
51744.0,STARLINK-3452,PAYLOAD,2024-06-13 12:09:19,15.08871853,8.21e-05,53.2168,286.109,73.9589,286.1493,0.00086158,0.00013463,0.0,0 STARLINK-3452,1 51744U 22016AG  24165.50647776  .00013463  00000-0  86158-3 0  9990,2 51744  53.2168 286.1090 0000821  73.9589 286.1493 15.08871853128882,6917.783,95.436,540.216,539.08,0.0
51744.0,STARLINK-3452,PAYLOAD,2024-06-13 13:44:42,15.08872965,9.08e-05,53.2169,285.8119,85.9507,274.1589,0.0012182,0.0001917,0.0,0 STARLINK-3452,1 51744U 22016AG  24165.57271931  .00019170  00000-0  12182-2 0  9999,2 51744  53.2169 285.8119 0000908  85.9507 274.1589 15.08872965127832,6917.78,95.435,540.273,539.016,0.0
51744.0,STARLINK-3452,PAYLOAD,2024-06-13 15:20:05,15.08879486,9.21e-05,53.2168,285.5152,60.8276,299.2808,0.0013799,0.00021765,0.0,0 STARLINK-3452,1 51744U 22016AG  24165.63895829  .00021765  00000-0  13799-2 0  9992,2 51744  53.2168 285.5152 0000921  60.8276 299.2808 15.08879486127843,6917.76,95.435,540.262,538.988,0.0
51744.0,STARLINK-3452,PAYLOAD,2024-06-14 13:35:29,15.08831023,0.0001039,53.2172,281.3555,100.4299,259.681,-0.00064604,-0.00010552,0.0,0 STARLINK-3452,1 51744U 22016AG  24166.56631476 -.00010552  00000-0 -64604-3 0  9997,2 51744  53.2172 281.3555 0001039 100.4299 259.6810 15.08831023129048,6917.908,95.438,540.492,539.054,0.0
51744.0,STARLINK-3452,PAYLOAD,2024-06-14 16:46:16,15.08814622,6.75e-05,53.2156,280.759,117.6764,242.4296,0.0019547,0.00030936,0.0,0 STARLINK-3452,1 51744U 22016AG  24166.69880004  .00030936  00000-0  19547-2 0  9995,2 51744  53.2156 280.7590 0000675 117.6764 242.4296 15.08814622128003,6917.958,95.439,540.29,539.356,0.0
51744.0,STARLINK-3452,PAYLOAD,2024-06-15 13:26:17,15.0884244,7.26e-05,53.216,276.8919,100.2289,259.8785,0.0012627,0.00019866,0.0,0 STARLINK-3452,1 51744U 22016AG  24167.55992803  .00019866  00000-0  12627-2 0  9993,2 51744  53.2160 276.8919 0000726 100.2289 259.8785 15.08842440128134,6917.873,95.437,540.24,539.236,0.0
51744.0,STARLINK-3452,PAYLOAD,2024-06-15 16:37:04,15.08848273,6.98e-05,53.2159,276.2977,92.9281,267.1791,0.0014565,0.00022973,0.0,0 STARLINK-3452,1 51744U 22016AG  24167.69240761  .00022973  00000-0  14565-2 0  9993,2 51744  53.2159 276.2977 0000698  92.9281 267.1791 15.08848273128158,6917.855,95.437,540.203,539.237,0.0
51744.0,STARLINK-3452,PAYLOAD,2024-06-16 13:17:04,15.08840606,8.42e-05,53.2161,272.4318,84.9248,275.184,0.00093159,0.0001457,0.0,0 STARLINK-3452,1 51744U 22016AG  24168.55352920  .00014570  00000-0  93159-3 0  9991,2 51744  53.2161 272.4318 0000842  84.9248 275.1840 15.08840606128283,6917.879,95.438,540.326,539.161,0.0
51744.0,STARLINK-3452,PAYLOAD,2024-06-16 16:27:51,15.08850295,9.1e-05,53.2159,271.8359,89.7048,270.4048,0.00073398,0.00011416,0.0,0 STARLINK-3452,1 51744U 22016AG  24168.68600752  .00011416  00000-0  73398-3 0  9993,2 51744  53.2159 271.8359 0000910  89.7048 270.4048 15.08850295128301,6917.849,95.437,540.343,539.084,0.0
51744.0,STARLINK-3452,PAYLOAD,2024-06-17 16:18:38,15.08833116,0.0001036,53.2162,267.3749,100.6536,259.4573,0.00037293,5.651e-05,0.0,0 STARLINK-3452,1 51744U 22016AG  24169.67961382  .00005651  00000-0  37293-3 0  9990,2 51744  53.2162 267.3749 0001036 100.6536 259.4573 15.08833116128452,6917.901,95.438,540.483,539.05,0.0
51744.0,STARLINK-3452,PAYLOAD,2024-06-18 12:58:39,15.08843239,0.0001086,53.2175,263.5107,98.2729,261.8386,0.00037665,5.712e-05,0.0,0 STARLINK-3452,1 51744U 22016AG  24170.54073464  .00005712  00000-0  37665-3 0  9994,2 51744  53.2175 263.5107 0001086  98.2729 261.8386 15.08843239128583,6917.87,95.437,540.487,538.984,0.0
51744.0,STARLINK-3452,PAYLOAD,2024-06-19 12:49:26,15.08840025,9.86e-05,53.2172,259.0516,100.1533,259.957,0.00013335,1.835e-05,0.0,0 STARLINK-3452,1 51744U 22016AG  24171.53433595  .00001835  00000-0  13335-3 0  9999,2 51744  53.2172 259.0516 0000986 100.1533 259.9570 15.08840025129795,6917.88,95.438,540.427,539.063,0.0
